{"type": "FeatureCollection", "features": [{"type": "Feature", "properties": {"route_id": "R1", "name": "Hamad Port to Industrial Area warehouse", "stops": ["hamad_port", "cs_wakrah", "wh_industrial"], "distance_km": 42.9, "duration_min": 43, "source": "approximate straight segments"}, "geometry": {"type": "LineString", "coordinates": [[51.605, 25.0], [51.60466, 25.00364], [51.60432, 25.00727], [51.60398, 25.01091], [51.60364, 25.01455], [51.6033, 25.01818], [51.60295, 25.02182], [51.60261, 25.02545], [51.60227, 25.02909], [51.60193, 25.03273], [51.60159, 25.03636], [51.60125, 25.04], [51.60091, 25.04364], [51.60057, 25.04727], [51.60023, 25.05091], [51.59989, 25.05455], [51.59955, 25.05818], [51.5992, 25.06182], [51.59886, 25.06545], [51.59852, 25.06909], [51.59818, 25.07273], [51.59784, 25.07636], [51.5975, 25.08], [51.59716, 25.08364], [51.59682, 25.08727], [51.59648, 25.09091], [51.59614, 25.09455], [51.5958, 25.09818], [51.59545, 25.10182], [51.59511, 25.10545], [51.59477, 25.10909], [51.59443, 25.11273], [51.59409, 25.11636], [51.59375, 25.12], [51.59341, 25.12364], [51.59307, 25.12727], [51.59273, 25.13091], [51.59239, 25.13455], [51.59205, 25.13818], [51.5917, 25.14182], [51.59136, 25.14545], [51.59102, 25.14909], [51.59068, 25.15273], [51.59034, 25.15636], [51.59, 25.16], [51.5861, 25.16073], [51.5822, 25.16146], [51.57829, 25.1622], [51.57439, 25.16293], [51.57049, 25.16366], [51.56659, 25.16439], [51.56268, 25.16512], [51.55878, 25.16585], [51.55488, 25.16659], [51.55098, 25.16732], [51.54707, 25.16805], [51.54317, 25.16878], [51.53927, 25.16951], [51.53537, 25.17024], [51.53146, 25.17098], [51.52756, 25.17171], [51.52366, 25.17244], [51.51976, 25.17317], [51.51585, 25.1739], [51.51195, 25.17463], [51.50805, 25.17537], [51.50415, 25.1761], [51.50024, 25.17683], [51.49634, 25.17756], [51.49244, 25.17829], [51.48854, 25.17902], [51.48463, 25.17976], [51.48073, 25.18049], [51.47683, 25.18122], [51.47293, 25.18195], [51.46902, 25.18268], [51.46512, 25.18341], [51.46122, 25.18415], [51.45732, 25.18488], [51.45341, 25.18561], [51.44951, 25.18634], [51.44561, 25.18707], [51.44171, 25.1878], [51.4378, 25.18854], [51.4339, 25.18927], [51.43, 25.19]]}}, {"type": "Feature", "properties": {"route_id": "R2", "name": "Industrial Area warehouse to Al Wakrah", "stops": ["wh_industrial", "store_wakrah"], "distance_km": 21.6, "duration_min": 22, "source": "approximate straight segments"}, "geometry": {"type": "LineString", "coordinates": [[51.43, 25.19], [51.43395, 25.18953], [51.43791, 25.18907], [51.44186, 25.1886], [51.44581, 25.18814], [51.44977, 25.18767], [51.45372, 25.18721], [51.45767, 25.18674], [51.46163, 25.18628], [51.46558, 25.18581], [51.46953, 25.18535], [51.47349, 25.18488], [51.47744, 25.18442], [51.4814, 25.18395], [51.48535, 25.18349], [51.4893, 25.18302], [51.49326, 25.18256], [51.49721, 25.18209], [51.50116, 25.18163], [51.50512, 25.18116], [51.50907, 25.1807], [51.51302, 25.18023], [51.51698, 25.17977], [51.52093, 25.1793], [51.52488, 25.17884], [51.52884, 25.17837], [51.53279, 25.17791], [51.53674, 25.17744], [51.5407, 25.17698], [51.54465, 25.17651], [51.5486, 25.17605], [51.55256, 25.17558], [51.55651, 25.17512], [51.56047, 25.17465], [51.56442, 25.17419], [51.56837, 25.17372], [51.57233, 25.17326], [51.57628, 25.17279], [51.58023, 25.17233], [51.58419, 25.17186], [51.58814, 25.1714], [51.59209, 25.17093], [51.59605, 25.17047], [51.6, 25.17]]}}, {"type": "Feature", "properties": {"route_id": "R3", "name": "Industrial Area warehouse to Lusail", "stops": ["wh_industrial", "store_doha", "store_lusail"], "distance_km": 37.7, "duration_min": 38, "source": "approximate straight segments"}, "geometry": {"type": "LineString", "coordinates": [[51.43, 25.19], [51.43278, 25.19264], [51.43556, 25.19528], [51.43833, 25.19792], [51.44111, 25.20056], [51.44389, 25.20319], [51.44667, 25.20583], [51.44944, 25.20847], [51.45222, 25.21111], [51.455, 25.21375], [51.45778, 25.21639], [51.46056, 25.21903], [51.46333, 25.22167], [51.46611, 25.22431], [51.46889, 25.22694], [51.47167, 25.22958], [51.47444, 25.23222], [51.47722, 25.23486], [51.48, 25.2375], [51.48278, 25.24014], [51.48556, 25.24278], [51.48833, 25.24542], [51.49111, 25.24806], [51.49389, 25.25069], [51.49667, 25.25333], [51.49944, 25.25597], [51.50222, 25.25861], [51.505, 25.26125], [51.50778, 25.26389], [51.51056, 25.26653], [51.51333, 25.26917], [51.51611, 25.27181], [51.51889, 25.27444], [51.52167, 25.27708], [51.52444, 25.27972], [51.52722, 25.28236], [51.53, 25.285], [51.52895, 25.28855], [51.52789, 25.29211], [51.52684, 25.29566], [51.52579, 25.29921], [51.52474, 25.30276], [51.52368, 25.30632], [51.52263, 25.30987], [51.52158, 25.31342], [51.52053, 25.31697], [51.51947, 25.32053], [51.51842, 25.32408], [51.51737, 25.32763], [51.51632, 25.33118], [51.51526, 25.33474], [51.51421, 25.33829], [51.51316, 25.34184], [51.51211, 25.34539], [51.51105, 25.34895], [51.51, 25.3525], [51.50895, 25.35605], [51.50789, 25.35961], [51.50684, 25.36316], [51.50579, 25.36671], [51.50474, 25.37026], [51.50368, 25.37382], [51.50263, 25.37737], [51.50158, 25.38092], [51.50053, 25.38447], [51.49947, 25.38803], [51.49842, 25.39158], [51.49737, 25.39513], [51.49632, 25.39868], [51.49526, 25.40224], [51.49421, 25.40579], [51.49316, 25.40934], [51.49211, 25.41289], [51.49105, 25.41645], [51.49, 25.42]]}}, {"type": "Feature", "properties": {"route_id": "R4", "name": "Abu Samra border to Industrial Area warehouse", "stops": ["abu_samra", "wh_industrial"], "distance_km": 96.3, "duration_min": 96, "source": "approximate straight segments"}, "geometry": {"type": "LineString", "coordinates": [[50.84, 24.75], [50.84307, 24.75229], [50.84615, 24.75458], [50.84922, 24.75688], [50.85229, 24.75917], [50.85536, 24.76146], [50.85844, 24.76375], [50.86151, 24.76604], [50.86458, 24.76833], [50.86766, 24.77062], [50.87073, 24.77292], [50.8738, 24.77521], [50.87688, 24.7775], [50.87995, 24.77979], [50.88302, 24.78208], [50.88609, 24.78438], [50.88917, 24.78667], [50.89224, 24.78896], [50.89531, 24.79125], [50.89839, 24.79354], [50.90146, 24.79583], [50.90453, 24.79812], [50.9076, 24.80042], [50.91068, 24.80271], [50.91375, 24.805], [50.91682, 24.80729], [50.9199, 24.80958], [50.92297, 24.81188], [50.92604, 24.81417], [50.92911, 24.81646], [50.93219, 24.81875], [50.93526, 24.82104], [50.93833, 24.82333], [50.94141, 24.82562], [50.94448, 24.82792], [50.94755, 24.83021], [50.95063, 24.8325], [50.9537, 24.83479], [50.95677, 24.83708], [50.95984, 24.83938], [50.96292, 24.84167], [50.96599, 24.84396], [50.96906, 24.84625], [50.97214, 24.84854], [50.97521, 24.85083], [50.97828, 24.85312], [50.98135, 24.85542], [50.98443, 24.85771], [50.9875, 24.86], [50.99057, 24.86229], [50.99365, 24.86458], [50.99672, 24.86688], [50.99979, 24.86917], [51.00286, 24.87146], [51.00594, 24.87375], [51.00901, 24.87604], [51.01208, 24.87833], [51.01516, 24.88063], [51.01823, 24.88292], [51.0213, 24.88521], [51.02437, 24.8875], [51.02745, 24.88979], [51.03052, 24.89208], [51.03359, 24.89438], [51.03667, 24.89667], [51.03974, 24.89896], [51.04281, 24.90125], [51.04589, 24.90354], [51.04896, 24.90583], [51.05203, 24.90813], [51.0551, 24.91042], [51.05818, 24.91271], [51.06125, 24.915], [51.06432, 24.91729], [51.0674, 24.91958], [51.07047, 24.92188], [51.07354, 24.92417], [51.07661, 24.92646], [51.07969, 24.92875], [51.08276, 24.93104], [51.08583, 24.93333], [51.08891, 24.93563], [51.09198, 24.93792], [51.09505, 24.94021], [51.09813, 24.9425], [51.1012, 24.94479], [51.10427, 24.94708], [51.10734, 24.94937], [51.11042, 24.95167], [51.11349, 24.95396], [51.11656, 24.95625], [51.11964, 24.95854], [51.12271, 24.96083], [51.12578, 24.96313], [51.12885, 24.96542], [51.13193, 24.96771], [51.135, 24.97], [51.13807, 24.97229], [51.14115, 24.97458], [51.14422, 24.97687], [51.14729, 24.97917], [51.15036, 24.98146], [51.15344, 24.98375], [51.15651, 24.98604], [51.15958, 24.98833], [51.16266, 24.99063], [51.16573, 24.99292], [51.1688, 24.99521], [51.17188, 24.9975], [51.17495, 24.99979], [51.17802, 25.00208], [51.18109, 25.00437], [51.18417, 25.00667], [51.18724, 25.00896], [51.19031, 25.01125], [51.19339, 25.01354], [51.19646, 25.01583], [51.19953, 25.01813], [51.2026, 25.02042], [51.20568, 25.02271], [51.20875, 25.025], [51.21182, 25.02729], [51.2149, 25.02958], [51.21797, 25.03187], [51.22104, 25.03417], [51.22411, 25.03646], [51.22719, 25.03875], [51.23026, 25.04104], [51.23333, 25.04333], [51.23641, 25.04563], [51.23948, 25.04792], [51.24255, 25.05021], [51.24563, 25.0525], [51.2487, 25.05479], [51.25177, 25.05708], [51.25484, 25.05937], [51.25792, 25.06167], [51.26099, 25.06396], [51.26406, 25.06625], [51.26714, 25.06854], [51.27021, 25.07083], [51.27328, 25.07313], [51.27635, 25.07542], [51.27943, 25.07771], [51.2825, 25.08], [51.28557, 25.08229], [51.28865, 25.08458], [51.29172, 25.08688], [51.29479, 25.08917], [51.29786, 25.09146], [51.30094, 25.09375], [51.30401, 25.09604], [51.30708, 25.09833], [51.31016, 25.10063], [51.31323, 25.10292], [51.3163, 25.10521], [51.31938, 25.1075], [51.32245, 25.10979], [51.32552, 25.11208], [51.32859, 25.11438], [51.33167, 25.11667], [51.33474, 25.11896], [51.33781, 25.12125], [51.34089, 25.12354], [51.34396, 25.12583], [51.34703, 25.12813], [51.3501, 25.13042], [51.35318, 25.13271], [51.35625, 25.135], [51.35932, 25.13729], [51.3624, 25.13958], [51.36547, 25.14188], [51.36854, 25.14417], [51.37161, 25.14646], [51.37469, 25.14875], [51.37776, 25.15104], [51.38083, 25.15333], [51.38391, 25.15563], [51.38698, 25.15792], [51.39005, 25.16021], [51.39312, 25.1625], [51.3962, 25.16479], [51.39927, 25.16708], [51.40234, 25.16938], [51.40542, 25.17167], [51.40849, 25.17396], [51.41156, 25.17625], [51.41464, 25.17854], [51.41771, 25.18083], [51.42078, 25.18313], [51.42385, 25.18542], [51.42693, 25.18771], [51.43, 25.19]]}}, {"type": "Feature", "properties": {"route_id": "R5", "name": "Industrial Area warehouse to Al Khor", "stops": ["wh_industrial", "store_lusail", "store_khor"], "distance_km": 69.0, "duration_min": 69, "source": "approximate straight segments"}, "geometry": {"type": "LineString", "coordinates": [[51.43, 25.19], [51.43092, 25.19354], [51.43185, 25.19708], [51.43277, 25.20062], [51.43369, 25.20415], [51.43462, 25.20769], [51.43554, 25.21123], [51.43646, 25.21477], [51.43738, 25.21831], [51.43831, 25.22185], [51.43923, 25.22538], [51.44015, 25.22892], [51.44108, 25.23246], [51.442, 25.236], [51.44292, 25.23954], [51.44385, 25.24308], [51.44477, 25.24662], [51.44569, 25.25015], [51.44662, 25.25369], [51.44754, 25.25723], [51.44846, 25.26077], [51.44938, 25.26431], [51.45031, 25.26785], [51.45123, 25.27138], [51.45215, 25.27492], [51.45308, 25.27846], [51.454, 25.282], [51.45492, 25.28554], [51.45585, 25.28908], [51.45677, 25.29262], [51.45769, 25.29615], [51.45862, 25.29969], [51.45954, 25.30323], [51.46046, 25.30677], [51.46138, 25.31031], [51.46231, 25.31385], [51.46323, 25.31738], [51.46415, 25.32092], [51.46508, 25.32446], [51.466, 25.328], [51.46692, 25.33154], [51.46785, 25.33508], [51.46877, 25.33862], [51.46969, 25.34215], [51.47062, 25.34569], [51.47154, 25.34923], [51.47246, 25.35277], [51.47338, 25.35631], [51.47431, 25.35985], [51.47523, 25.36338], [51.47615, 25.36692], [51.47708, 25.37046], [51.478, 25.374], [51.47892, 25.37754], [51.47985, 25.38108], [51.48077, 25.38462], [51.48169, 25.38815], [51.48262, 25.39169], [51.48354, 25.39523], [51.48446, 25.39877], [51.48538, 25.40231], [51.48631, 25.40585], [51.48723, 25.40938], [51.48815, 25.41292], [51.48908, 25.41646], [51.49, 25.42], [51.49014, 25.42361], [51.49028, 25.42722], [51.49042, 25.43083], [51.49056, 25.43444], [51.49069, 25.43806], [51.49083, 25.44167], [51.49097, 25.44528], [51.49111, 25.44889], [51.49125, 25.4525], [51.49139, 25.45611], [51.49153, 25.45972], [51.49167, 25.46333], [51.49181, 25.46694], [51.49194, 25.47056], [51.49208, 25.47417], [51.49222, 25.47778], [51.49236, 25.48139], [51.4925, 25.485], [51.49264, 25.48861], [51.49278, 25.49222], [51.49292, 25.49583], [51.49306, 25.49944], [51.49319, 25.50306], [51.49333, 25.50667], [51.49347, 25.51028], [51.49361, 25.51389], [51.49375, 25.5175], [51.49389, 25.52111], [51.49403, 25.52472], [51.49417, 25.52833], [51.49431, 25.53194], [51.49444, 25.53556], [51.49458, 25.53917], [51.49472, 25.54278], [51.49486, 25.54639], [51.495, 25.55], [51.49514, 25.55361], [51.49528, 25.55722], [51.49542, 25.56083], [51.49556, 25.56444], [51.49569, 25.56806], [51.49583, 25.57167], [51.49597, 25.57528], [51.49611, 25.57889], [51.49625, 25.5825], [51.49639, 25.58611], [51.49653, 25.58972], [51.49667, 25.59333], [51.49681, 25.59694], [51.49694, 25.60056], [51.49708, 25.60417], [51.49722, 25.60778], [51.49736, 25.61139], [51.4975, 25.615], [51.49764, 25.61861], [51.49778, 25.62222], [51.49792, 25.62583], [51.49806, 25.62944], [51.49819, 25.63306], [51.49833, 25.63667], [51.49847, 25.64028], [51.49861, 25.64389], [51.49875, 25.6475], [51.49889, 25.65111], [51.49903, 25.65472], [51.49917, 25.65833], [51.49931, 25.66194], [51.49944, 25.66556], [51.49958, 25.66917], [51.49972, 25.67278], [51.49986, 25.67639], [51.5, 25.68]]}}, {"type": "Feature", "properties": {"route_id": "R6", "name": "Industrial Area warehouse to Al Rayyan", "stops": ["wh_industrial", "store_rayyan"], "distance_km": 14.0, "duration_min": 14, "source": "approximate straight segments"}, "geometry": {"type": "LineString", "coordinates": [[51.43, 25.19], [51.42963, 25.1937], [51.42926, 25.19741], [51.42889, 25.20111], [51.42852, 25.20481], [51.42815, 25.20852], [51.42778, 25.21222], [51.42741, 25.21593], [51.42704, 25.21963], [51.42667, 25.22333], [51.4263, 25.22704], [51.42593, 25.23074], [51.42556, 25.23444], [51.42519, 25.23815], [51.42481, 25.24185], [51.42444, 25.24556], [51.42407, 25.24926], [51.4237, 25.25296], [51.42333, 25.25667], [51.42296, 25.26037], [51.42259, 25.26407], [51.42222, 25.26778], [51.42185, 25.27148], [51.42148, 25.27519], [51.42111, 25.27889], [51.42074, 25.28259], [51.42037, 25.2863], [51.42, 25.29]]}}]}